{"type": "FeatureCollection", "features": [ {"type": "Feature", "properties": {"norad_id": 40701, "name": "GAOFEN-8", "group": "resource", "lat": -66.95165831558322, "lon": -167.03430836757227, "alt_km": 465.024092820413, "timestamp": "2025-12-21T20:41:07.642939+00:00", "meta": {"OBJECT_NAME": "GAOFEN-8", "OBJECT_ID": "2015-030A", "EPOCH": "2025-12-21T14:44:22.050240", "MEAN_MOTION": 15.38826539, "ECCENTRICITY": 0.00120452, "INCLINATION": 97.6902, "RA_OF_ASC_NODE": 174.1884, "ARG_OF_PERICENTER": 108.4733, "MEAN_ANOMALY": 251.7822, "EPHEMERIS_TYPE": 0, "CLASSIFICATION_TYPE": "U", "NORAD_CAT_ID": 40701, "ELEMENT_SET_NO": 999, "REV_AT_EPOCH": 58407, "BSTAR": 0.00044218528, "MEAN_MOTION_DOT": 0.00016948, "MEAN_MOTION_DDOT": 0}, "tle": {"line1": "1 40701U 15030A   25355.61414410  .00016948  00000+0  44219-3 0  9992", "line2": "2 40701  97.6902 174.1884 0012045 108.4733 251.7822 15.38826539584079"}}, "geometry": {"type": "Point", "coordinates": [-167.03430836757227, -66.95165831558322]}}, {"type": "Feature", "properties": {"norad_id": 40718, "name": "CARBONITE 1 (CBNT-1)", "group": "resource", "lat": -9.2277074976861, "lon": -4.745804525479993, "alt_km": 616.3448038449114, "timestamp": "2025-12-21T20:41:07.642947+00:00", "meta": {"OBJECT_NAME": "CARBONITE 1 (CBNT-1)", "OBJECT_ID": "2015-032D", "EPOCH": "2025-12-21T14:58:37.157952", "MEAN_MOTION": 14.82782385, "ECCENTRICITY": 0.00150583, "INCLINATION": 97.6396, "RA_OF_ASC_NODE": 176.2764, "ARG_OF_PERICENTER": 152.391, "MEAN_ANOMALY": 207.8107, "EPHEMERIS_TYPE": 0, "CLASSIFICATION_TYPE": "U", "NORAD_CAT_ID": 40718, "ELEMENT_SET_NO": 999, "REV_AT_EPOCH": 56302, "BSTAR": 0.00021844767, "MEAN_MOTION_DOT": 1.719e-05, "MEAN_MOTION_DDOT": 0}, "tle": {"line1": "1 40718U 15032D   25355.62404118  .00001719  00000+0  21845-3 0  9997", "line2": "2 40718  97.6396 176.2764 0015058 152.3910 207.8107 14.82782385563024"}}, "geometry": {"type": "Point", "coordinates": [-4.745804525479993, -9.2277074976861]}}, {"type": "Feature", "properties": {"norad_id": 40878, "name": "YAOGAN-27", "group": "resource", "lat": -1.6685220301283064, "lon": 164.77164480484052, "alt_km": 1202.0268785570133, "timestamp": "2025-12-21T20:41:07.642957+00:00", "meta": {"OBJECT_NAME": "YAOGAN-27", "OBJECT_ID": "2015-040A", "EPOCH": "2025-12-21T14:17:28.746240", "MEAN_MOTION": 13.16058889, "ECCENTRICITY": 0.0007597, "INCLINATION": 100.1006, "RA_OF_ASC_NODE": 344.8148, "ARG_OF_PERICENTER": 265.0043, "MEAN_ANOMALY": 95.0204, "EPHEMERIS_TYPE": 0, "CLASSIFICATION_TYPE": "U", "NORAD_CAT_ID": 40878, "ELEMENT_SET_NO": 999, "REV_AT_EPOCH": 49430, "BSTAR": -0.0011236193, "MEAN_MOTION_DOT": -4.69e-06, "MEAN_MOTION_DDOT": 0}, "tle": {"line1": "1 40878U 15040A   25355.59547160 -.00000469  00000+0 -11236-2 0  9999", "line2": "2 40878 100.1006 344.8148 0007597 265.0043  95.0204 13.16058889494306"}}, "geometry": {"type": "Point", "coordinates": [164.77164480484052, -1.6685220301283064]}}, {"type": "Feature", "properties": {"norad_id": 40894, "name": "GAOFEN-9 01", "group": "resource", "lat": 77.93882122125207, "lon": -106.57914930127298, "alt_km": 615.7767760361376, "timestamp": "2025-12-21T20:41:07.642967+00:00", "meta": {"OBJECT_NAME": "GAOFEN-9 01", "OBJECT_ID": "2015-047A", "EPOCH": "2025-12-21T15:22:50.762784", "MEAN_MOTION": 14.82442434, "ECCENTRICITY": 0.002767, "INCLINATION": 97.6531, "RA_OF_ASC_NODE": 34.2115, "ARG_OF_PERICENTER": 5.6278, "MEAN_ANOMALY": 354.5242, "EPHEMERIS_TYPE": 0, "CLASSIFICATION_TYPE": "U", "NORAD_CAT_ID": 40894, "ELEMENT_SET_NO": 999, "REV_AT_EPOCH": 55388, "BSTAR": 0.00011624347, "MEAN_MOTION_DOT": 8.87e-06, "MEAN_MOTION_DDOT": 0}, "tle": {"line1": "1 40894U 15047A   25355.64086531  .00000887  00000+0  11624-3 0  9994", "line2": "2 40894  97.6531  34.2115 0027670   5.6278 354.5242 14.82442434553884"}}, "geometry": {"type": "Point", "coordinates": [-106.57914930127298, 77.93882122125207]}}, {"type": "Feature", "properties": {"norad_id": 41026, "name": "YAOGAN-28", "group": "resource", "lat": -7.35964898707121, "lon": -47.54879222473084, "alt_km": 496.3702535301991, "timestamp": "2025-12-21T20:41:07.642976+00:00", "meta": {"OBJECT_NAME": "YAOGAN-28", "OBJECT_ID": "2015-064A", "EPOCH": "2025-12-21T15:08:30.250752", "MEAN_MOTION": 15.24484726, "ECCENTRICITY": 0.00126481, "INCLINATION": 97.2814, "RA_OF_ASC_NODE": 133.173, "ARG_OF_PERICENTER": 97.7741, "MEAN_ANOMALY": 262.4933, "EPHEMERIS_TYPE": 0, "CLASSIFICATION_TYPE": "U", "NORAD_CAT_ID": 41026, "ELEMENT_SET_NO": 999, "REV_AT_EPOCH": 56360, "BSTAR": 0.00025731243, "MEAN_MOTION_DOT": 6.267e-05, "MEAN_MOTION_DDOT": 0}, "tle": {"line1": "1 41026U 15064A   25355.63090568  .00006267  00000+0  25731-3 0  9997", "line2": "2 41026  97.2814 133.1730 0012648  97.7741 262.4933 15.24484726563602"}}, "geometry": {"type": "Point", "coordinates": [-47.54879222473084, -7.35964898707121]}}, {"type": "Feature", "properties": {"norad_id": 41038, "name": "YAOGAN-29", "group": "resource", "lat": 1.8732464804487827, "lon": 18.798567544331743, "alt_km": 623.3645138642614, "timestamp": "2025-12-21T20:41:07.642985+00:00", "meta": {"OBJECT_NAME": "YAOGAN-29", "OBJECT_ID": "2015-069A", "EPOCH": "2025-12-21T14:11:56.998752", "MEAN_MOTION": 14.82891427, "ECCENTRICITY": 5.525e-05, "INCLINATION": 98.0207, "RA_OF_ASC_NODE": 18.7917, "ARG_OF_PERICENTER": 171.5156, "MEAN_ANOMALY": 188.6067, "EPHEMERIS_TYPE": 0, "CLASSIFICATION_TYPE": "U", "NORAD_CAT_ID": 41038, "ELEMENT_SET_NO": 999, "REV_AT_EPOCH": 54430, "BSTAR": 2.0992725e-05, "MEAN_MOTION_DOT": 1.16e-06, "MEAN_MOTION_DDOT": 0}, "tle": {"line1": "1 41038U 15069A   25355.59163193  .00000116  00000+0  20993-4 0  9998", "line2": "2 41038  98.0207  18.7917 0000552 171.5156 188.6067 14.82891427544303"}}, "geometry": {"type": "Point", "coordinates": [18.798567544331743, 1.8732464804487827]}}, {"type": "Feature", "properties": {"norad_id": 41167, "name": "KENT RIDGE 1", "group": "resource", "lat": -12.41047254595183, "lon": 18.84476508608693, "alt_km": 494.0189286756813, "timestamp": "2025-12-21T20:41:07.642994+00:00", "meta": {"OBJECT_NAME": "KENT RIDGE 1", "OBJECT_ID": "2015-077B", "EPOCH": "2025-12-21T14:55:58.846368", "MEAN_MOTION": 15.21699214, "ECCENTRICITY": 0.00085388, "INCLINATION": 14.9785, "RA_OF_ASC_NODE": 145.2281, "ARG_OF_PERICENTER": 256.3079, "MEAN_ANOMALY": 103.6292, "EPHEMERIS_TYPE": 0, "CLASSIFICATION_TYPE": "U", "NORAD_CAT_ID": 41167, "ELEMENT_SET_NO": 999, "REV_AT_EPOCH": 55399, "BSTAR": 0.00013519952, "MEAN_MOTION_DOT": 3.907e-05, "MEAN_MOTION_DDOT": 0}, "tle": {"line1": "1 41167U 15077B   25355.62220887  .00003907  00000+0  13520-3 0  9996", "line2": "2 41167  14.9785 145.2281 0008538 256.3079 103.6292 15.21699214553998"}}, "geometry": {"type": "Point", "coordinates": [18.84476508608693, -12.41047254595183]}}, {"type": "Feature", "properties": {"norad_id": 41194, "name": "GAOFEN-4", "group": "resource", "lat": 0.18902522620772322, "lon": 146.65405535944947, "alt_km": 35775.134595722026, "timestamp": "2025-12-21T20:41:07.643006+00:00", "meta": {"OBJECT_NAME": "GAOFEN-4", "OBJECT_ID": "2015-083A", "EPOCH": "2025-12-19T15:27:26.627616", "MEAN_MOTION": 1.00273138, "ECCENTRICITY": 0.0002945, "INCLINATION": 0.1878, "RA_OF_ASC_NODE": 81.7841, "ARG_OF_PERICENTER": 93.4275, "MEAN_ANOMALY": 250.8523, "EPHEMERIS_TYPE": 0, "CLASSIFICATION_TYPE": "U", "NORAD_CAT_ID": 41194, "ELEMENT_SET_NO": 999, "REV_AT_EPOCH": 3672, "BSTAR": 0, "MEAN_MOTION_DOT": -3.11e-06, "MEAN_MOTION_DDOT": 0}, "tle": {"line1": "1 41194U 15083A   25353.64405819 -.00000311  00000+0  00000+0 0  9995", "line2": "2 41194   0.1878  81.7841 0002945  93.4275 250.8523  1.00273138 36722"}}, "geometry": {"type": "Point", "coordinates": [146.65405535944947, 0.18902522620772322]}}, {"type": "Feature", "properties": {"norad_id": 41240, "name": "JASON-3", "group": "resource", "lat": 57.48401830488301, "lon": -85.58226098065687, "alt_km": 1309.7147789709989, "timestamp": "2025-12-21T20:41:07.643016+00:00", "meta": {"OBJECT_NAME": "JASON-3", "OBJECT_ID": "2016-002A", "EPOCH": "2025-12-21T14:30:36.082656", "MEAN_MOTION": 12.8762688, "ECCENTRICITY": 0.00072405, "INCLINATION": 66.04, "RA_OF_ASC_NODE": 139.1867, "ARG_OF_PERICENTER": 271.3098, "MEAN_ANOMALY": 88.7091, "EPHEMERIS_TYPE": 0, "CLASSIFICATION_TYPE": "U", "NORAD_CAT_ID": 41240, "ELEMENT_SET_NO": 999, "REV_AT_EPOCH": 46438, "BSTAR": -1.5867868e-05, "MEAN_MOTION_DOT": -6.6e-07, "MEAN_MOTION_DDOT": 0}, "tle": {"line1": "1 41240U 16002A   25355.60458429 -.00000066  00000+0 -15868-4 0  9993", "line2": "2 41240  66.0400 139.1867 0007240 271.3098  88.7091 12.87626880464383"}}, "geometry": {"type": "Point", "coordinates": [-85.58226098065687, 57.48401830488301]}}, {"type": "Feature", "properties": {"norad_id": 41335, "name": "SENTINEL-3A", "group": "resource", "lat": 19.748575032085522, "lon": 57.62149679462993, "alt_km": 802.5377221831341, "timestamp": "2025-12-21T20:41:07.643026+00:00", "meta": {"OBJECT_NAME": "SENTINEL-3A", "OBJECT_ID": "2016-011A", "EPOCH": "2025-12-21T13:51:34.537248", "MEAN_MOTION": 14.26733887, "ECCENTRICITY": 8.961e-05, "INCLINATION": 98.6302, "RA_OF_ASC_NODE": 60.4666, "ARG_OF_PERICENTER": 94.6988, "MEAN_ANOMALY": 265.4295, "EPHEMERIS_TYPE": 0, "CLASSIFICATION_TYPE": "U", "NORAD_CAT_ID": 41335, "ELEMENT_SET_NO": 999, "REV_AT_EPOCH": 51273, "BSTAR": 6.379166e-05, "MEAN_MOTION_DOT": 1.11e-06, "MEAN_MOTION_DDOT": 0}, "tle": {"line1": "1 41335U 16011A   25355.57748307  .00000111  00000+0  63792-4 0  9999", "line2": "2 41335  98.6302  60.4666 0000896  94.6988 265.4295 14.26733887512731"}}, "geometry": {"type": "Point", "coordinates": [57.62149679462993, 19.748575032085522]}}]}